STARLINK-1329           
1 45531U 20025A   22287.21166828  .00003533  00000+0  25593-3 0  9992
2 45531  53.0542 284.3250 0001911  57.8161 302.3013 15.06410179137224
STARLINK-1338           
1 45532U 20025B   22287.15638323  .00000946  00000+0  82373-4 0  9995
2 45532  53.0553 284.5776 0001623  54.6188 305.4952 15.06396974137239
STARLINK-1341           
1 45534U 20025D   22286.70301085  .00002640  00000+0  19607-3 0  9991
2 45534  53.0549 286.5979 0002440  36.6230 323.4925 15.06401857137742
STARLINK-1350           
1 45535U 20025E   22287.18586537  .00002550  00000+0  19004-3 0  9993
2 45535  53.0552 284.4340 0001567  51.1301 308.9828 15.06397210137237
STARLINK-1352           
1 45536U 20025F   22287.18955311  .00001855  00000+0  14339-3 0  9997
2 45536  53.0552 284.4198 0001818  64.5042 295.6135 15.06403609137231
STARLINK-1353           
1 45537U 20025G   22287.10050048  .00077977  00000+0  24865-2 0  9995
2 45537  52.9746 220.8013 0005561 118.1768 241.9793 15.31838083138089
STARLINK-1362           
1 45538U 20025H   22287.21535273  .00002282  00000+0  17202-3 0  9991
2 45538  53.0538 284.3129 0001968  54.0951 306.0221 15.06401096137230
STARLINK-1368           
1 45540U 20025K   22287.19324053  .00003188  00000+0  23282-3 0  9994
2 45540  53.0532 284.4138 0001950  61.6208 298.4978 15.06403115137235
STARLINK-1369           
1 45541U 20025L   22286.73249371  .00003420  00000+0  24837-3 0  9999
2 45541  53.0551 286.4761 0001823  61.4472 298.6700 15.06403411137167
STARLINK-1371           
1 45542U 20025M   22287.16375394  .00000627  00000+0  61000-4 0  9993
2 45542  53.0539 284.5475 0001745  56.5960 303.5196 15.06401467137226
STARLINK-1372           
1 45543U 20025N   22286.73618537  .00002186  00000+0  16560-3 0  9997
2 45543  53.0547 286.4594 0001652  61.2798 298.8357 15.06400548137165
STARLINK-1373           
1 45544U 20025P   22287.21904240  .00001427  00000+0  11470-3 0  9993
2 45544  53.0541 284.2972 0001575  61.7911 298.3237 15.06399655137227
STARLINK-1374           
1 45545U 20025Q   22286.70670107 -.00003068  00000+0 -18721-3 0  9990
2 45545  53.0562 286.5915 0002292  37.3816 322.7332 15.06388160137725
STARLINK-1375           
1 45546U 20025R   22287.18218214  .00002254  00000+0  17017-3 0  9992
2 45546  53.0535 284.4636 0001601  62.6953 297.4199 15.06402911137224
STARLINK-1377           
1 45547U 20025S   22286.38234034  .00001972  00000+0  15129-3 0  9990
2 45547  53.0540 288.0556 0001557  58.3820 301.7321 15.06393807137709
STARLINK-1378           
1 45548U 20025T   22287.20429867  .00001235  00000+0  10178-3 0  9994
2 45548  53.0545 284.3563 0001797  55.6443 304.4715 15.06404966137233
STARLINK-1390           
1 45550U 20025V   22286.42562321 -.00000166  00000+0  77796-5 0  9997
2 45550  53.0534 287.8331 0001565  44.5304 315.5810 15.06391672137699
STARLINK-1294           
1 45551U 20025W   22287.22456784  .00000325  00000+0  40683-4 0  9992
2 45551  53.0556 264.2685 0001489  61.8146 298.2993 15.06401424137490
STARLINK-1323           
1 45553U 20025Y   22287.16927785  .00001248  00000+0  10264-3 0  9997
2 45553  53.0562 264.5016 0001630  58.7270 301.3879 15.06403654137497
STARLINK-1325           
1 45554U 20025Z   22287.16096672  .00001625  00000+0  12799-3 0  9994
2 45554  53.0557 264.5375 0001937  49.8870 310.2288 15.06404676137484
STARLINK-1327           
1 45555U 20025AA  22287.19139720  .00003298  00000+0  24017-3 0  9994
2 45555  53.0564 264.4152 0001468  53.8833 306.2291 15.06399008137490
STARLINK-1334           
1 45556U 20025AB  22287.16559800  .00002576  00000+0  19177-3 0  9996
2 45556  53.0531 264.5279 0001669  54.1557 305.9587 15.06401807137491
STARLINK-1336           
1 45557U 20025AC  22287.23932282  .00002255  00000+0  17027-3 0  9990
2 45557  53.0524 264.2060 0001620  62.3293 297.7861 15.06392302137508
STARLINK-1342           
1 45558U 20025AD  22287.20615122 -.00000747  00000+0 -31234-4 0  9992
2 45558  53.0534 264.3561 0001883  54.2887 305.8277 15.06388398137497
STARLINK-1344           
1 45559U 20025AE  22287.23836545  .00000665  00000+0  63567-4 0  9991
2 45559  53.0547 264.1391 0001652  61.1560 298.9595 15.06399368137506
STARLINK-1346           
1 45560U 20025AF  22287.16188466 -.00001155  00000+0 -58664-4 0  9996
2 45560  53.0542 254.5420 0001446  84.0926 276.0228 15.06390030137631
STARLINK-1348           
1 45561U 20025AG  22286.41367500  .00039815  00000+0  19214-2 0  9990
2 45561  53.0528 169.6673 0002678 148.9874 211.1279 15.18317664139365
STARLINK-1354           
1 45562U 20025AH  22287.18402410 -.00000223  00000+0  39088-5 0  9992
2 45562  53.0534 264.4306 0001448  69.9937 290.1208 15.06406920137498
STARLINK-1355           
1 45563U 20025AJ  22287.19877116  .00001700  00000+0  13301-3 0  9991
2 45563  53.0539 264.3657 0001508  81.4750 278.6410 15.06400206137498
STARLINK-1356           
1 45564U 20025AK  22286.66430741  .00002804  00000+0  20706-3 0  9995
2 45564  53.0567 266.7802 0001761  68.2353 291.8823 15.06397286137411
STARLINK-1357           
1 45565U 20025AL  22287.18770847  .00002132  00000+0  16199-3 0  9993
2 45565  53.0552 264.4267 0001572  63.0377 297.0773 15.06405461137490
STARLINK-1358           
1 45566U 20025AM  22287.20245506  .00003609  00000+0  26101-3 0  9990
2 45566  53.0528 264.3695 0001584  63.8966 296.2186 15.06405666137499
STARLINK-1361           
1 45567U 20025AN  22286.68273232  .00003912  00000+0  28136-3 0  9996
2 45567  53.0541 266.6812 0001590  73.3148 286.8016 15.06404213138020
STARLINK-1363           
1 45568U 20025AP  22287.16193989  .00000660  00000+0  63186-4 0  9993
2 45568  53.0551 264.7897 0001824  56.3440 303.7723 15.06394459137483
STARLINK-1366           
1 45569U 20025AQ  22287.21719301  .00001465  00000+0  11727-3 0  9999
2 45569  53.0553 264.2988 0001793  57.7726 302.3436 15.06393529137493
STARLINK-1376           
1 45570U 20025AR  22287.20982022  .00001284  00000+0  10507-3 0  9996
2 45570  53.0541 264.3199 0001591  65.3230 294.7925 15.06409721137497
STARLINK-1261           
1 45571U 20025AS  22287.15914901  .00007859  00000+0  54579-3 0  9993
2 45571  53.0544 254.5392 0001564  69.7639 290.3518 15.06408452137634
STARLINK-1320           
1 45572U 20025AT  22286.62100399  .00001744  00000+0  13598-3 0  9996
2 45572  53.0540 256.9733 0001405  66.1004 294.0132 15.06393865138159
STARLINK-1321           
1 45573U 20025AU  22287.19600646  .00001379  00000+0  11143-3 0  9998
2 45573  53.0535 254.3997 0001647  64.4693 295.6466 15.06402228137634
STARLINK-1324           
1 45574U 20025AV  22287.15545640  .00002835  00000+0  20912-3 0  9999
2 45574  53.0558 254.5574 0001523  63.1541 296.9603 15.06400402137633
STARLINK-1326           
1 45575U 20025AW  22287.15643354  .00042626  00000+0  19925-2 0  9994
2 45575  52.9981 233.5477 0003680 113.0423 247.0960 15.19388603137883
STARLINK-1328           
1 45576U 20025AX  22287.18125427  .00003693  00000+0  26677-3 0  9998
2 45576  53.0548 254.4609 0001589  65.5348 294.5807 15.06393129137632
STARLINK-1330           
1 45577U 20025AY  22287.15940049  .00026306  00000+0  16723-2 0  9997
2 45577  53.0534 254.0951 0002458  88.4814 271.6457 15.08670832137629
STARLINK-1331           
1 45578U 20025AZ  22287.17388881  .00003424  00000+0  24865-3 0  9993
2 45578  53.0556 254.4844 0001438  73.4849 286.6298 15.06401372137637
STARLINK-1332           
1 45579U 20025BA  22287.11493749  .00003438  00000+0  24955-3 0  9993
2 45579  53.0542 214.9074 0001450 108.1578 251.9569 15.06404230138192
STARLINK-1333           
1 45580U 20025BB  22287.18033614  .00000719  00000+0  67161-4 0  9999
2 45580  53.0551 264.4499 0001433  78.9114 281.2036 15.06386948137498
STARLINK-1335           
1 45581U 20025BC  22287.18494572  .00001830  00000+0  14174-3 0  9994
2 45581  53.0552 254.4358 0001594  74.9882 285.1283 15.06396197137639
STARLINK-1337           
1 45582U 20025BD  22286.34455142  .00000449  00000+0  49055-4 0  9994
2 45582  53.0541 258.2217 0002086  36.3567 323.7563 15.06398645138106
STARLINK-1340           
1 45583U 20025BE  22287.18864560  .00014203  00000+0  97029-3 0  9992
2 45583  53.0558 254.4264 0002006  63.0762 297.0432 15.06407668137632
STARLINK-1343           
1 45584U 20025BF  22286.64585301  .00002904  00000+0  21377-3 0  9994
2 45584  53.0552 256.8596 0001501  70.4909 289.6242 15.06396475138152
STARLINK-1347           
1 45586U 20025BH  22287.19969633  .00002189  00000+0  16579-3 0  9994
2 45586  53.0536 254.3828 0001740  73.2381 286.8799 15.06403967137629
STARLINK-1349           
1 45587U 20025BJ  22286.63943276  .00002625  00000+0  19511-3 0  9992
2 45587  53.0537 256.8952 0001322  67.1390 292.9738 15.06393661138153
STARLINK-1360           
1 45588U 20025BK  22286.61731155  .00002337  00000+0  17573-3 0  9998
2 45588  53.0531 256.9881 0001441  78.3842 281.7309 15.06398322138146
STARLINK-1364           
1 45589U 20025BL  22287.14441644  .00000408  00000+0  46264-4 0  9996
2 45589  53.0556 254.6283 0001484  64.0523 296.0619 15.06391589137623
STARLINK-1365           
1 45590U 20025BM  22286.82834114  .00000819  00000+0  73919-4 0  9993
2 45590  53.0538 286.0439 0002053  41.3780 318.7364 15.06385123137775
